NORAD_CAT_ID,OBJECT_NAME,OBJECT_TYPE,EPOCH,MEAN_MOTION,ECCENTRICITY,INCLINATION,RA_OF_ASC_NODE,ARG_OF_PERICENTER,MEAN_ANOMALY,BSTAR,MEAN_MOTION_DOT,MEAN_MOTION_DDOT,TLE_LINE0,TLE_LINE1,TLE_LINE2,SEMIMAJOR_AXIS,PERIOD,APOGEE,PERIGEE,DECAYED
52673.0,STARLINK-3976,PAYLOAD,2022-07-23 22:00:00,15.08826557,0.0001839,53.2173,341.2418,43.2553,42.9996,0.0012558,0.00019747,0.0,0 STARLINK-3976,1 52673U 22053T   22204.91667824  .00019747  00000-0  12558-2 0  9999,2 52673  53.2173 341.2418 0001839  43.2553  42.9996 15.08826557 10627,6917.920999999999,95.438,541.059,538.514,0.0
52673.0,STARLINK-3976,PAYLOAD,2022-07-24 14:00:01,15.08854952,0.0001823,53.2175,338.2486,47.5596,61.8652,-0.0016032,-0.00025723,0.0,0 STARLINK-3976,1 52673U 22053T   22205.58334491 -.00025723  00000-0 -16032-2 0  9998,2 52673  53.2175 338.2486 0001823  47.5596  61.8652 15.08854952  1301,6917.835,95.437,540.961,538.439,0.0
52673.0,STARLINK-3976,PAYLOAD,2022-07-24 22:00:00,15.08847488,0.0001849,53.2175,336.7525,41.8584,79.1687,-0.0016372,-0.00026255,0.0,0 STARLINK-3976,1 52673U 22053T   22205.91667824 -.00026255  00000-0 -16372-2 0  9992,2 52673  53.2175 336.7525 0001849  41.8584  79.1687 15.08847488  1306,6917.858,95.437,541.002,538.443,0.0
52673.0,STARLINK-3976,PAYLOAD,2022-07-25 14:00:01,15.08840631,0.0001829,53.218,333.7595,45.0504,99.1454,-0.0013164,-0.00021178,0.0,0 STARLINK-3976,1 52673U 22053T   22206.58334491 -.00021178  00000-0 -13164-2 0  9992,2 52673  53.2180 333.7595 0001829  45.0504  99.1454 15.08840631  1309,6917.878000000002,95.438,541.009,538.4780000000002,0.0
52673.0,STARLINK-3976,PAYLOAD,2022-07-25 22:00:00,15.08844599,0.0001886999999999,53.218,332.2633,41.5934,114.1905,-3.7386e-05,-8.83e-06,0.0,0 STARLINK-3976,1 52673U 22053T   22206.91667824 -.00000883  00000-0 -37386-4 0  9992,2 52673  53.2180 332.2633 0001887  41.5934 114.1905 15.08844599 10922,6917.866,95.437,541.0369999999998,538.4259999999998,0.0
52673.0,STARLINK-3976,PAYLOAD,2022-07-26 14:00:01,15.08863522,0.0001875999999999,53.2185,329.2706,44.0974,134.8863,-0.0020949,-0.00033496,0.0,0 STARLINK-3976,1 52673U 22053T   22207.58334491 -.00033496  00000-0 -20949-2 0  9998,2 52673  53.2185 329.2706 0001876  44.0974 134.8863 15.08863522  1305,6917.808000000001,95.436,540.971,538.376,0.0
52673.0,STARLINK-3976,PAYLOAD,2022-07-26 22:00:00,15.08851164,0.0001857,53.2185,327.7742,40.13800000000001,150.4561,-0.0017527999999999,-0.00028085,0.0,0 STARLINK-3976,1 52673U 22053T   22207.91667824 -.00028085  00000-0 -17528-2 0  9991,2 52673  53.2185 327.7742 0001857  40.1380 150.4561 15.08851164  1303,6917.846,95.437,540.996,538.427,0.0
52673.0,STARLINK-3976,PAYLOAD,2022-07-27 06:00:02,15.08818189,0.0001665,53.2188,326.2764,45.2834,156.9725,0.0024527,0.00038939,0.0,0 STARLINK-3976,1 52673U 22053T   22208.25002315  .00038939  00000-0  24527-2 0  9991,2 52673  53.2188 326.2764 0001665  45.2834 156.9725 15.08818189 11125,6917.946999999999,95.439,540.964,538.66,0.0
52673.0,STARLINK-3976,PAYLOAD,2022-07-27 14:00:01,15.08843943,0.000184,53.2189,324.7818,42.0462,171.7333,-0.00078352,-0.00012738,0.0,0 STARLINK-3976,1 52673U 22053T   22208.58334491 -.00012738  00000-0 -78352-3 0  9997,2 52673  53.2189 324.7818 0001840  42.0462 171.7333 15.08843943  1301,6917.868,95.437,541.006,538.46,0.0
52673.0,STARLINK-3976,PAYLOAD,2022-07-27 22:00:00,15.08869437,0.0001857,53.2188,323.2853,41.2595,184.1111,-0.0031111,-0.00049502,0.0,0 STARLINK-3976,1 52673U 22053T   22208.91667824 -.00049502  00000-0 -31111-2 0  9993,2 52673  53.2188 323.2853 0001857  41.2595 184.1111 15.08869437 11229,6917.79,95.436,540.94,538.371,0.0
52673.0,STARLINK-3976,PAYLOAD,2022-07-28 14:00:01,15.08829307,0.0001913,53.2189,320.2932,44.9026,203.6586,-0.00058938,-9.653e-05,0.0,0 STARLINK-3976,1 52673U 22053T   22209.58334491 -.00009653  00000-0 -58938-3 0  9998,2 52673  53.2189 320.2932 0001913  44.9026 203.6586 15.08829307  1300,6917.913000000001,95.438,541.101,538.455,0.0
52673.0,STARLINK-3976,PAYLOAD,2022-07-28 22:00:00,15.08846718,0.0001874,53.2186,318.7966,43.8766,216.2575,-0.0017939,-0.0002873,0.0,0 STARLINK-3976,1 52673U 22053T   22209.91667824 -.00028730  00000-0 -17939-2 0  9996,2 52673  53.2186 318.7966 0001874  43.8766 216.2575 15.08846718 11372,6917.86,95.437,541.021,538.428,0.0
52673.0,STARLINK-3976,PAYLOAD,2022-07-29 14:00:01,15.08838726,0.0001902,53.2185,315.8048,45.7597,237.5574,-0.000414,-6.871e-05,0.0,0 STARLINK-3976,1 52673U 22053T   22210.58334491 -.00006871  00000-0 -41400-3 0  9995,2 52673  53.2185 315.8048 0001902  45.7597 237.5574 15.08838726 11471,6917.884,95.438,541.065,538.434,0.0
52673.0,STARLINK-3976,PAYLOAD,2022-07-29 22:00:00,15.08858455,0.0001849,53.2181,314.3081,44.942,249.961,-0.00213,-0.00034045,0.0,0 STARLINK-3976,1 52673U 22053T   22210.91667824 -.00034045  00000-0 -21300-2 0  9991,2 52673  53.2181 314.3081 0001849  44.9420 249.9610 15.08858455  1304,6917.824000000001,95.436,540.9680000000002,538.41,0.0
52673.0,STARLINK-3976,PAYLOAD,2022-07-30 14:00:01,15.08845504,0.0001919,53.2179,311.3163,46.5315,271.5774,-0.00018685,-3.261e-05,0.0,0 STARLINK-3976,1 52673U 22053T   22211.58334491 -.00003261  00000-0 -18685-3 0  9995,2 52673  53.2179 311.3163 0001919  46.5315 271.5774 15.08845504 11627,6917.864000000001,95.437,541.056,538.401,0.0
52673.0,STARLINK-3976,PAYLOAD,2022-07-30 22:00:00,15.08867627,0.0001871,53.2175,309.8193,45.9825,283.723,-0.0022515,-0.0003597,0.0,0 STARLINK-3976,1 52673U 22053T   22211.91667824 -.00035970  00000-0 -22515-2 0  9999,2 52673  53.2175 309.8193 0001871  45.9825 283.7230 15.08867627  1300,6917.795999999999,95.436,540.955,538.367,0.0
52673.0,STARLINK-3976,PAYLOAD,2022-07-31 14:00:01,15.08825483,0.0002056999999999,53.2174,306.8275,48.9867,303.9349,7.1205e-05,8.45e-06,0.0,0 STARLINK-3976,1 52673U 22053T   22212.58334491  .00000845  00000-0  71205-4 0  9997,2 52673  53.2174 306.8275 0002057  48.9867 303.9349 15.08825483  1303,6917.925,95.438,541.2130000000002,538.367,0.0
52673.0,STARLINK-3976,PAYLOAD,2022-07-31 20:00:01,15.08841218,0.0002014,53.217,305.7049,47.1106,224.4899,-0.0010517999999999,-0.00016989,0.0,0 STARLINK-3976,1 52673U 22053T   22212.83334491 -.00016989  00000-0 -10518-2 0  9991,2 52673  53.2170 305.7049 0002014  47.1106 224.4899 15.08841218 11814,6917.877,95.437,541.135,538.3480000000002,0.0
52673.0,STARLINK-3976,PAYLOAD,2022-07-31 22:00:00,15.08848447,0.0001988,53.2171,305.3303,48.4271,316.0689,-0.002222,-0.00035486,0.0,0 STARLINK-3976,1 52673U 22053T   22212.91667824 -.00035486  00000-0 -22220-2 0  9995,2 52673  53.2171 305.3303 0001988  48.4271 316.0689 15.08848447  1309,6917.855,95.437,541.095,538.344,0.0
52673.0,STARLINK-3976,PAYLOAD,2022-08-01 14:00:01,15.08834775,0.0002129,53.2171,302.3386,48.8394,338.8442,0.00042752,6.521e-05,0.0,0 STARLINK-3976,1 52673U 22053T   22213.58334491  .00006521  00000-0  42752-3 0  9999,2 52673  53.2171 302.3386 0002129  48.8394 338.8442 15.08834775 11933,6917.896,95.438,541.234,538.289,0.0
52673.0,STARLINK-3976,PAYLOAD,2022-08-01 22:00:00,15.08861141,0.0002044999999999,53.217,300.8411,48.6102,350.6641,-0.0019205,-0.00030741,0.0,0 STARLINK-3976,1 52673U 22053T   22213.91667824 -.00030741  00000-0 -19205-2 0  9994,2 52673  53.2170 300.8411 0002045  48.6102 350.6641 15.08861141  1306,6917.816,95.436,541.095,538.266,0.0
52673.0,STARLINK-3976,PAYLOAD,2022-08-02 14:00:01,15.088216699999998,0.0002098,53.2172,297.8493,46.661,15.83,4.3999e-05,4.12e-06,0.0,0 STARLINK-3976,1 52673U 22053T   22214.58334491  .00000412  00000-0  43999-4 0  9998,2 52673  53.2172 297.8493 0002098  46.6610  15.8300 15.08821670  1308,6917.936,95.439,541.253,538.35,0.0
52673.0,STARLINK-3976,PAYLOAD,2022-08-03 14:00:01,15.08824576,0.0002133999999999,53.2175,293.3601,46.2527,50.9891,0.0011925,0.00018734,0.0,0 STARLINK-3976,1 52673U 22053T   22215.58334491  .00018734  00000-0  11925-2 0  9997,2 52673  53.2175 293.3601 0002134  46.2527  50.9891 15.08824576  1300,6917.928000000001,95.439,541.269,538.316,0.0
52673.0,STARLINK-3976,PAYLOAD,2022-08-03 20:00:01,15.08856779,0.0002077,53.2173,292.237,45.7331,330.1934,-0.0018794,-0.00030089,0.0,0 STARLINK-3976,1 52673U 22053T   22215.83334491 -.00030089  00000-0 -18794-2 0  9995,2 52673  53.2173 292.2370 0002077  45.7331 330.1934 15.08856779 12271,6917.829000000002,95.436,541.131,538.257,0.0
52673.0,STARLINK-3976,PAYLOAD,2022-08-03 22:00:01,15.08852373,0.0002015,53.2175,291.8624,47.8864,61.0048,-0.0014592,-0.00023445,0.0,0 STARLINK-3976,1 52673U 22053T   22215.91668981 -.00023445  00000-0 -14592-2 0  9998,2 52673  53.2175 291.8624 0002015  47.8864  61.0048 15.08852373  1300,6917.843000000003,95.437,541.102,538.314,0.0
52673.0,STARLINK-3976,PAYLOAD,2022-08-04 12:00:00,15.08860234,0.0002096,53.2175,289.2446,46.4588,352.6697,-0.0025835999999999,-0.00041195,0.0,0 STARLINK-3976,1 52673U 22053T   22216.50001157 -.00041195  00000-0 -25836-2 0  9995,2 52673  53.2175 289.2446 0002096  46.4588 352.6697 15.08860234 12373,6917.819,95.436,541.134,538.234,0.0
52673.0,STARLINK-3976,PAYLOAD,2022-08-04 14:00:01,15.08845208,0.0002099,53.2176,288.8708,45.2496,86.7848,-0.0012361,-0.0001991,0.0,0 STARLINK-3976,1 52673U 22053T   22216.58334491 -.00019910  00000-0 -12361-2 0  9992,2 52673  53.2176 288.8708 0002099  45.2496  86.7848 15.08845208  1306,6917.864000000001,95.437,541.182,538.2769999999998,0.0
52673.0,STARLINK-3976,PAYLOAD,2022-08-04 22:00:00,15.08831882,0.0001899999999999,53.2176,287.373,46.2333,97.3991,-0.0011523,-0.00018576,0.0,0 STARLINK-3976,1 52673U 22053T   22216.91667824 -.00018576  00000-0 -11523-2 0  9994,2 52673  53.2176 287.3730 0001900  46.2333  97.3991 15.08831882  1306,6917.905,95.438,541.085,538.456,0.0
52673.0,STARLINK-3976,PAYLOAD,2022-08-05 04:00:00,15.08816368,0.000185,53.2176,286.2501,49.9661,12.3506,0.0019299,0.0003054,0.0,0 STARLINK-3976,1 52673U 22053T   22217.16667824  .00030540  00000-0  19299-2 0  9993,2 52673  53.2176 286.2501 0001850  49.9661  12.3506 15.08816368 12479,6917.953,95.439,541.097,538.538,0.0
